[{"OBJECT_NAME":"STARLINK-6259","OBJECT_ID":"2023-088AT","EPOCH":"2026-03-09T22:00:01.999584","MEAN_MOTION":15.08410027,"ECCENTRICITY":0.00011886,"INCLINATION":43.0008,"RA_OF_ASC_NODE":92.9306,"ARG_OF_PERICENTER":317.4913,"MEAN_ANOMALY":175.4469,"EPHEMERIS_TYPE":0,"CLASSIFICATION_TYPE":"U","NORAD_CAT_ID":57089,"ELEMENT_SET_NO":999,"REV_AT_EPOCH":578,"BSTAR":0.0035208814,"MEAN_MOTION_DOT":0.0005594,"MEAN_MOTION_DDOT":0},{"OBJECT_NAME":"STRIX-5","OBJECT_ID":"2025-229A","EPOCH":"2026-03-09T11:44:23.455104","MEAN_MOTION":15.03509399,"ECCENTRICITY":0.00369417,"INCLINATION":41.9265,"RA_OF_ASC_NODE":119.8574,"ARG_OF_PERICENTER":120.2079,"MEAN_ANOMALY":240.2413,"EPHEMERIS_TYPE":0,"CLASSIFICATION_TYPE":"U","NORAD_CAT_ID":65971,"ELEMENT_SET_NO":999,"REV_AT_EPOCH":2196,"BSTAR":0.00044899589,"MEAN_MOTION_DOT":6.129e-5,"MEAN_MOTION_DDOT":0}]
